#aV2022  3  2  0  0  0.00000000     288 DD+AD WGS84 FIT  NGA
## 2199 259200.00000000   300.00000000 59640 0.0000000000000
+   32     1  2  3  4  5  6  7  8  9 10 11 12 13 14 15 16 17
+         18 19 20 21 22 23 24 25 26 27 28 29 30 31 32  0  0
+          0  0  0  0  0  0  0  0  0  0  0  0  0  0  0  0  0
+          0  0  0  0  0  0  0  0  0  0  0  0  0  0  0  0  0
+          0  0  0  0  0  0  0  0  0  0  0  0  0  0  0  0  0
++         2  2  2  2  2  2  2  2  2  2  2  2  2  2  2  2  2
++         2  2  2  2  2  2  2  2  2  2  2  2  2  2  2  0  0
++         0  0  0  0  0  0  0  0  0  0  0  0  0  0  0  0  0
++         0  0  0  0  0  0  0  0  0  0  0  0  0  0  0  0  0
++         0  0  0  0  0  0  0  0  0  0  0  0  0  0  0  0  0
%c cc cc ccc ccc cccc cccc cccc cccc ccccc ccccc ccccc ccccc
%c cc cc ccc ccc cccc cccc cccc cccc ccccc ccccc ccccc ccccc
%f  0.0000000  0.000000000  0.00000000000  0.000000000000000
%f  0.0000000  0.000000000  0.00000000000  0.000000000000000
%i    0    0    0    0      0      0      0      0         0
%i    0    0    0    0      0      0      0      0         0
/*      NGA, ST. LOUIS,MO.                                  
/*   EPHEMERIS COMPUTED FROM 2 DAYS OF DATA                 
/*   EPOCHA v7 SMOOTHER                                     
/*   G2139 IERS2010 SATIGS SATAPC                           
*  2022  3  2  4  5  0.00000000
P  1   6665.475885  13751.534926 -22045.717365    419.017684                    
V  1 -26893.100707   4054.079428  -5335.620617     -0.092881                    
P  2  15801.879909 -15061.001525  15882.638039   -651.693171                    
V  2  18771.901498  -2828.913127 -22167.294056     -0.005517                    
P  3  11962.473987  22677.566851  -7250.842073   -144.589919                    
V  3  -7390.979147  -5640.501349 -30153.753491     -0.173498                    
P  4   1971.302418  21882.374749  14870.208102   -186.427432                    
V  4  -9321.544060  16578.359546 -23250.108490      0.024818                    
P  5   1205.177037 -18553.947627  18748.342367    -73.203393                    
V  5  17125.041108  17170.435707  15903.188059     -0.013325                    
P  6  25911.387056  -5566.564517   2376.408490    217.657361                    
V  6   3176.895920   1460.299935 -32072.720959      0.123806                    
P  7  21725.871020   7057.691929  14339.089196    313.649648                    
V  7 -16904.426431   4503.810553  23554.751444      0.023401                    
P  8  -5088.327770  25289.400288  -5514.042900    -58.184484                    
V  8  -5115.048546   5628.529839  31030.910126     -0.015478                    
P  9  10814.530892  12798.791212  20531.522245   -351.871970                    
V  9  -9891.711026  24339.925831  -9960.836471      0.018552                    
P 10 -19718.900102  -6226.000771 -16689.612157   -334.702267                    
V 10 -12314.365868 -17470.448012  20601.163216     -0.109826                    
P 11  17752.647977 -12501.874957  15287.172232    -73.568237                    
V 11  19520.442099     32.017198 -22648.594716      0.108262                    
P 12  -7940.352269 -23458.207930 -10040.191004   -178.610214                    
V 12   8748.101107   8907.450426 -28359.720365     -0.057236                    
P 13  13107.862560 -22984.387388    634.401932    269.962133                    
V 13   1889.202540   2168.191450  32032.914963      0.062588                    
P 14  19763.817286   7229.323804 -16252.267690    -89.572167                    
V 14  10718.556236  17725.256966  20854.988337     -0.040695                    
P 15   1455.148770 -25667.357826  -6375.192835    -79.978175                    
V 15   5541.180937  -6550.565671  29842.183340      0.029183                    
P 16  -6584.214338  15246.041850  20343.763311   -475.726327                    
V 16 -15716.370955 -21420.075661  11276.706496     -0.046002                    
P 17  16451.134708  -3484.990111 -20141.726142    581.778472                    
V 17 -10193.746937  24457.565145 -12248.965179      0.050872                    
P 18 -21529.622385  -6770.147315  14080.536143    229.221222                    
V 18  17407.966281  -4260.328618  24462.440551     -0.084323                    
P 19  17971.700239 -10521.061547 -16635.475165    125.558800                    
V 19  -8082.362999  19080.231428 -21310.865444      0.049976                    
P 20   9416.281771 -12534.362367  21449.468322    516.480806                    
V 20  20270.049060  18283.289030   1540.774033     -0.001654                    
P 21  -4357.997755  15622.694685 -20229.004801    158.821730                    
V 21 -26930.689055   5108.572613  10069.672460      0.005434                    
P 22 -17432.820302  14050.614002 -13740.468835    221.177518                    
V 22   5759.216844 -17429.561341 -24601.777289      0.057686                    
P 23 -20262.667218 -15344.941644  -7887.340213     -3.214763                    
V 23  -4682.297231  -9110.774530  29697.798108     -0.033405                    
P 24  -2594.002603 -15730.945618 -21524.643011    271.399255                    
V 24  26116.271893  -5859.879103   1563.694728     -0.027162                    
P 25 -17498.126251 -20135.113580   1154.823526    292.583012                    
V 25    954.765852  -3100.197016 -31447.819839      0.052761                    
P 26 -15698.497570   5278.516022  20732.839844    187.425342                    
V 26 -17201.713134 -20231.284695  -7533.356101      0.031226                    
P 27 -12435.366306  22603.707003   5151.802110    139.246784                    
V 27    -66.653804  -7374.517994  31390.618939      0.142030                    
P 28  16327.256511   -701.367869 -20370.259035    389.544866                    
V 28  14112.142052  23139.365681  10476.724340     -0.082633                    
P 29  -7715.452647 -15286.588383  20241.794686   -486.364553                    
V 29  11829.719660 -22903.774663 -12812.636257     -0.045897                    
P 30  25885.855668   1216.646353   6456.929698   -516.369792                    
V 30  -7562.956806   4295.319761  29596.875446     -0.021750                    
P 31 -25555.970651   6638.011856   4534.931238   -167.046130                    
V 31  -6130.373508  -1765.319943 -30634.578554     -0.017270                    
P 32 -16962.780019   7910.297008 -18635.290394    -76.893763                    
V 32   6956.756884 -23044.292833 -16185.341747     -0.070917                    
EOF
